account_number,business_name,address,city,state,zip,phone
21590,Climate Control,6049 US Highway 301 North ,Elm City ,NC,27822,252-236-3484
23504,Langlet Maintenance ,8360 Red Oak Blvd,Nashville,NC,27856,252-937-2398
23055,Mercer Heating & Cooling,8650 Graham Brantley Road ,Bailey,NC,27807,252-230-0048
23113,Perfect Temp,2109 Beckman Place ,Wilson,NC,27896,252-363-9556
21576,Performance Heating & Cooling Inc ,3466 Airport Blvd,Wilson,NC,27896,252-399-1100
22410,Ream Heating & Cooling ,100 Clayton Street ,Rocky Mount ,NC,27803,252-446-8065
22080,Renfrow Heating & Cooling ,9419 Hawley Road ,Kenly ,NC,27542,919-284-0603
23175,Aaffordable Heating & Cooling ,1600 Forest Hills Road ,Wilson,NC ,27893,252-237-5455
21993,B&J Plumbing Heating & Air ,3517-B Airport Blvd NW,Wilson,NC,27896,252-237-5578
21583,Central Builders- Plumbing/Heating,P.O. Box 1679,Rocky Mount ,NC,27802,252-442-8047
22029,Delcor Inc,834 Rivit Street,Greenville,NC,27834,252-321-8868 x205
23694,Equal Air- Gene Renfrow,6177 Lamm Road,Wilson,NC,27896,252-234-9999
22072,Frank Bethall LLC,403 Statesville Road,Como,NC,27818,252-398-4954
24606,J&D Heating & Cooling,1261 South Winstead Ave,Rocky Mount ,NC,27803,252-937-6060
23360,Lyndon Heating & Cooling,3705-G Airport Circle ,Wilson,NC,27896,252-991-5867
22257,M&M Heating & Cooling ,108 South Gardner Street,Kenly ,NC,27542,919-284-6710
22078,Metro Maintenance Inc ,1175 Jefferys Road,Rocky Mount ,NC,27802,252-977-1616
22595,Odd Jobs of Johnston County Inc,140 Uzzle Industrial Drive,Clayton,NC,27520,919-934-3431
24237,Quality Plumbing & Mechanical ,Suite 110,Virginia Beach,VA,23464,757-366-0059
11447,SE & M Constructors ,P.O. Box 1320,Rocky Mount ,NC,27804,252-977-1155
3431,Southern Piping Company,P.O. Box 3006,Wilson,NC,27895,252-291-1561 x1103
21930,White & Woodley Mechanical,2107 US Highway 13 South,Ahoskie,NC,27910,252-332-4131 